ONEWEB-0168             
1 48068U 21025AC  24055.47521332  .00000062  00000+0  13522-3 0  9992
2 48068  87.8978 128.1564 0001853 106.7586 253.3746 13.13467911142803
ONEWEB-0173             
1 48069U 21025AD  24056.22904527 -.00000227  00000+0 -65521-3 0  9999
2 48069  87.8977 128.0171 0001386 102.4291 257.6994 13.13472170143146
ONEWEB-0171             
1 48070U 21025AE  24056.18937291  .00000385  00000+0  10206-2 0  9992
2 48070  87.8979 128.0603 0001781 100.2243 259.9087 13.13472066142952
ONEWEB-0172             
1 48071U 21025AF  24055.55932092  .00000255  00000+0  66349-3 0  9993
2 48071  87.8980 128.1519 0001716  99.7185 260.4138 13.13472778143761
ONEWEB-0174             
1 48072U 21025AG  24056.22747809 -.00000219  00000+0 -63516-3 0  9994
2 48072  87.8978 128.0334 0001985 109.2592 250.8752 13.13470595143175
ONEWEB-0175             
1 48073U 21025AH  24056.17985317  .00000332  00000+0  87327-3 0  9997
2 48073  87.8971 128.0383 0001889  90.9350 269.1996 13.13472264142823
ONEWEB-0177             
1 48074U 21025AJ  24056.49725292  .00000352  00000+0  93008-3 0  9992
2 48074  87.8974 127.9814 0001528 114.1678 245.9611 13.13471938143055
ONEWEB-0178             
1 48075U 21025AK  24056.21014341 -.00000077  00000+0 -24684-3 0  9999
2 48075  87.8983 128.0485 0001677 107.6705 252.4608 13.13468147143063
